[{"OBJECT_NAME":"STARLINK-5459","OBJECT_ID":"2023-021AT","EPOCH":"2026-03-03T14:38:38.757120","MEAN_MOTION":14.98346242,"ECCENTRICITY":0.00035994,"INCLINATION":69.9991,"RA_OF_ASC_NODE":179.7925,"ARG_OF_PERICENTER":274.6044,"MEAN_ANOMALY":85.4704,"EPHEMERIS_TYPE":0,"CLASSIFICATION_TYPE":"U","NORAD_CAT_ID":55669,"ELEMENT_SET_NO":999,"REV_AT_EPOCH":16836,"BSTAR":-0.00011483931,"MEAN_MOTION_DOT":-1.464e-5,"MEAN_MOTION_DDOT":0},{"OBJECT_NAME":"STARLINK-5423","OBJECT_ID":"2023-021AU","EPOCH":"2026-03-03T14:20:37.512096","MEAN_MOTION":14.98305819,"ECCENTRICITY":0.00030794,"INCLINATION":70.0024,"RA_OF_ASC_NODE":179.7523,"ARG_OF_PERICENTER":253.0115,"MEAN_ANOMALY":107.0707,"EPHEMERIS_TYPE":0,"CLASSIFICATION_TYPE":"U","NORAD_CAT_ID":55670,"ELEMENT_SET_NO":999,"REV_AT_EPOCH":16837,"BSTAR":0.00041530552,"MEAN_MOTION_DOT":4.863e-5,"MEAN_MOTION_DDOT":0},{"OBJECT_NAME":"STARLINK-5460","OBJECT_ID":"2023-021AV","EPOCH":"2026-03-03T15:26:58.477632","MEAN_MOTION":14.98330713,"ECCENTRICITY":0.00031939,"INCLINATION":70.001,"RA_OF_ASC_NODE":179.9012,"ARG_OF_PERICENTER":268.9041,"MEAN_ANOMALY":91.1752,"EPHEMERIS_TYPE":0,"CLASSIFICATION_TYPE":"U","NORAD_CAT_ID":55671,"ELEMENT_SET_NO":999,"REV_AT_EPOCH":16837,"BSTAR":2.2581043e-5,"MEAN_MOTION_DOT":1.76e-6,"MEAN_MOTION_DDOT":0},{"OBJECT_NAME":"STARLINK-5463","OBJECT_ID":"2023-021AX","EPOCH":"2026-03-03T14:14:36.273696","MEAN_MOTION":14.98333055,"ECCENTRICITY":0.0003054,"INCLINATION":70.0013,"RA_OF_ASC_NODE":179.7349,"ARG_OF_PERICENTER":272.1196,"MEAN_ANOMALY":87.9614,"EPHEMERIS_TYPE":0,"CLASSIFICATION_TYPE":"U","NORAD_CAT_ID":55673,"ELEMENT_SET_NO":999,"REV_AT_EPOCH":16837,"BSTAR":1.9155301e-5,"MEAN_MOTION_DOT":1.36e-6,"MEAN_MOTION_DDOT":0},{"OBJECT_NAME":"STARLINK-5462","OBJECT_ID":"2023-021AY","EPOCH":"2026-03-03T12:26:27.025440","MEAN_MOTION":14.98337028,"ECCENTRICITY":0.0003283,"INCLINATION":70.0028,"RA_OF_ASC_NODE":179.8744,"ARG_OF_PERICENTER":268.9983,"MEAN_ANOMALY":91.08,"EPHEMERIS_TYPE":0,"CLASSIFICATION_TYPE":"U","NORAD_CAT_ID":55674,"ELEMENT_SET_NO":999,"REV_AT_EPOCH":16836,"BSTAR":0.00070089346,"MEAN_MOTION_DOT":8.281e-5,"MEAN_MOTION_DDOT":0},{"OBJECT_NAME":"STARLINK-5232","OBJECT_ID":"2023-021AZ","EPOCH":"2026-03-03T15:26:42.030528","MEAN_MOTION":14.98330191,"ECCENTRICITY":0.00029935,"INCLINATION":70.001,"RA_OF_ASC_NODE":179.5101,"ARG_OF_PERICENTER":265.1164,"MEAN_ANOMALY":94.9653,"EPHEMERIS_TYPE":0,"CLASSIFICATION_TYPE":"U","NORAD_CAT_ID":55675,"ELEMENT_SET_NO":999,"REV_AT_EPOCH":16838,"BSTAR":-9.88943e-6,"MEAN_MOTION_DOT":-2.11e-6,"MEAN_MOTION_DDOT":0},{"OBJECT_NAME":"STARLINK-5300","OBJECT_ID":"2023-021BA","EPOCH":"2026-03-03T14:14:31.261632","MEAN_MOTION":14.98340176,"ECCENTRICITY":0.00031503,"INCLINATION":70.0034,"RA_OF_ASC_NODE":159.8667,"ARG_OF_PERICENTER":264.8434,"MEAN_ANOMALY":95.2365,"EPHEMERIS_TYPE":0,"CLASSIFICATION_TYPE":"U","NORAD_CAT_ID":55676,"ELEMENT_SET_NO":999,"REV_AT_EPOCH":16886,"BSTAR":0.00059963643,"MEAN_MOTION_DOT":7.071e-5,"MEAN_MOTION_DDOT":0},{"OBJECT_NAME":"STARLINK-5324","OBJECT_ID":"2023-021BB","EPOCH":"2026-03-03T12:20:08.647008","MEAN_MOTION":14.98323184,"ECCENTRICITY":0.00034782,"INCLINATION":70.0008,"RA_OF_ASC_NODE":159.985,"ARG_OF_PERICENTER":276.3818,"MEAN_ANOMALY":83.6945,"EPHEMERIS_TYPE":0,"CLASSIFICATION_TYPE":"U","NORAD_CAT_ID":55677,"ELEMENT_SET_NO":999,"REV_AT_EPOCH":16885,"BSTAR":9.497452e-6,"MEAN_MOTION_DOT":2.0e-7,"MEAN_MOTION_DDOT":0},{"OBJECT_NAME":"STARLINK-5592","OBJECT_ID":"2023-028A","EPOCH":"2026-03-02T23:44:44.477952","MEAN_MOTION":14.98337471,"ECCENTRICITY":0.00030135,"INCLINATION":69.9981,"RA_OF_ASC_NODE":261.464,"ARG_OF_PERICENTER":267.884,"MEAN_ANOMALY":92.1974,"EPHEMERIS_TYPE":0,"CLASSIFICATION_TYPE":"U","NORAD_CAT_ID":55741,"ELEMENT_SET_NO":999,"REV_AT_EPOCH":16522,"BSTAR":-2.430975e-5,"MEAN_MOTION_DOT":-3.83e-6,"MEAN_MOTION_DDOT":0},{"OBJECT_NAME":"STARLINK-5594","OBJECT_ID":"2023-028B","EPOCH":"2026-03-02T23:50:45.718944","MEAN_MOTION":14.98332846,"ECCENTRICITY":0.00023841,"INCLINATION":69.9979,"RA_OF_ASC_NODE":261.4793,"ARG_OF_PERICENTER":270.3216,"MEAN_ANOMALY":89.7669,"EPHEMERIS_TYPE":0,"CLASSIFICATION_TYPE":"U","NORAD_CAT_ID":55742,"ELEMENT_SET_NO":999,"REV_AT_EPOCH":16503,"BSTAR":-0.00030529279,"MEAN_MOTION_DOT":-3.734e-5,"MEAN_MOTION_DDOT":0},{"OBJECT_NAME":"STARLINK-5602","OBJECT_ID":"2023-028C","EPOCH":"2026-03-03T14:21:58.639968","MEAN_MOTION":14.98339641,"ECCENTRICITY":0.00031451,"INCLINATION":69.9983,"RA_OF_ASC_NODE":259.979,"ARG_OF_PERICENTER":269.0162,"MEAN_ANOMALY":91.0637,"EPHEMERIS_TYPE":0,"CLASSIFICATION_TYPE":"U","NORAD_CAT_ID":55743,"ELEMENT_SET_NO":999,"REV_AT_EPOCH":16512,"BSTAR":-0.00026124471,"MEAN_MOTION_DOT":-3.21e-5,"MEAN_MOTION_DDOT":0},{"OBJECT_NAME":"STARLINK-5601","OBJECT_ID":"2023-028D","EPOCH":"2026-03-03T16:00:01.999584","MEAN_MOTION":14.98354106,"ECCENTRICITY":0.0002744,"INCLINATION":69.9995,"RA_OF_ASC_NODE":259.7816,"ARG_OF_PERICENTER":268.9277,"MEAN_ANOMALY":119.9138,"EPHEMERIS_TYPE":0,"CLASSIFICATION_TYPE":"U","NORAD_CAT_ID":55744,"ELEMENT_SET_NO":999,"REV_AT_EPOCH":577,"BSTAR":-0.0027385439,"MEAN_MOTION_DOT":-0.00032637,"MEAN_MOTION_DDOT":0},{"OBJECT_NAME":"STARLINK-5579","OBJECT_ID":"2023-028F","EPOCH":"2026-03-03T15:10:01.446816","MEAN_MOTION":14.98333927,"ECCENTRICITY":0.00022272,"INCLINATION":69.998,"RA_OF_ASC_NODE":259.6931,"ARG_OF_PERICENTER":271.5715,"MEAN_ANOMALY":88.5189,"EPHEMERIS_TYPE":0,"CLASSIFICATION_TYPE":"U","NORAD_CAT_ID":55746,"ELEMENT_SET_NO":999,"REV_AT_EPOCH":16513,"BSTAR":7.6908239e-5,"MEAN_MOTION_DOT":8.25e-6,"MEAN_MOTION_DDOT":0},{"OBJECT_NAME":"STARLINK-5539","OBJECT_ID":"2023-028G","EPOCH":"2026-03-03T15:34:04.103040","MEAN_MOTION":14.98334622,"ECCENTRICITY":0.00024999,"INCLINATION":69.9982,"RA_OF_ASC_NODE":259.7516,"ARG_OF_PERICENTER":273.184,"MEAN_ANOMALY":86.9033,"EPHEMERIS_TYPE":0,"CLASSIFICATION_TYPE":"U","NORAD_CAT_ID":55747,"ELEMENT_SET_NO":999,"REV_AT_EPOCH":16513,"BSTAR":3.866279e-5,"MEAN_MOTION_DOT":3.68e-6,"MEAN_MOTION_DDOT":0},{"OBJECT_NAME":"STARLINK-5580","OBJECT_ID":"2023-028H","EPOCH":"2026-03-03T15:28:03.348480","MEAN_MOTION":14.98331511,"ECCENTRICITY":0.00026967,"INCLINATION":69.9984,"RA_OF_ASC_NODE":259.7359,"ARG_OF_PERICENTER":271.6348,"MEAN_ANOMALY":88.4502,"EPHEMERIS_TYPE":0,"CLASSIFICATION_TYPE":"U","NORAD_CAT_ID":55748,"ELEMENT_SET_NO":999,"REV_AT_EPOCH":16513,"BSTAR":3.008153e-5,"MEAN_MOTION_DOT":2.66e-6,"MEAN_MOTION_DDOT":0},{"OBJECT_NAME":"STARLINK-5573","OBJECT_ID":"2023-028K","EPOCH":"2026-03-03T15:22:02.583552","MEAN_MOTION":14.9833274,"ECCENTRICITY":0.00028599,"INCLINATION":69.9978,"RA_OF_ASC_NODE":259.7222,"ARG_OF_PERICENTER":271.9436,"MEAN_ANOMALY":88.1396,"EPHEMERIS_TYPE":0,"CLASSIFICATION_TYPE":"U","NORAD_CAT_ID":55750,"ELEMENT_SET_NO":999,"REV_AT_EPOCH":16513,"BSTAR":6.9379084e-5,"MEAN_MOTION_DOT":7.35e-6,"MEAN_MOTION_DDOT":0}]
