STARLINK-5459           
1 55669U 23021AT  26062.61017080 -.00001464  00000+0 -11484-3 0  9995
2 55669  69.9991 179.7925 0003599 274.6044  85.4704 14.98346242168364
STARLINK-5423           
1 55670U 23021AU  26062.59765639  .00004863  00000+0  41531-3 0  9994
2 55670  70.0024 179.7523 0003079 253.0115 107.0707 14.98305819168373
STARLINK-5460           
1 55671U 23021AV  26062.64373238  .00000176  00000+0  22581-4 0  9999
2 55671  70.0010 179.9012 0003193 268.9041  91.1752 14.98330713168378
STARLINK-5463           
1 55673U 23021AX  26062.59347539  .00000136  00000+0  19155-4 0  9999
2 55673  70.0013 179.7349 0003054 272.1196  87.9614 14.98333055168370
STARLINK-5462           
1 55674U 23021AY  26062.51836835  .00008281  00000+0  70089-3 0  9995
2 55674  70.0028 179.8744 0003283 268.9983  91.0800 14.98337028168364
STARLINK-5232           
1 55675U 23021AZ  26062.64354202 -.00000211  00000+0 -98894-5 0  9996
2 55675  70.0010 179.5101 0002993 265.1164  94.9653 14.98330191168381
STARLINK-5300           
1 55676U 23021BA  26062.59341738  .00007071  00000+0  59964-3 0  9993
2 55676  70.0034 159.8667 0003150 264.8434  95.2365 14.98340176168869
STARLINK-5324           
1 55677U 23021BB  26062.51398897  .00000020  00000+0  94975-5 0  9994
2 55677  70.0008 159.9850 0003478 276.3818  83.6945 14.98323184168857
STARLINK-5592           
1 55741U 23028A   26061.98940368 -.00000383  00000+0 -24310-4 0  9998
2 55741  69.9981 261.4640 0003013 267.8840  92.1974 14.98337471165226
STARLINK-5594           
1 55742U 23028B   26061.99358471 -.00003734  00000+0 -30529-3 0  9999
2 55742  69.9979 261.4793 0002384 270.3216  89.7669 14.98332846165032
STARLINK-5602           
1 55743U 23028C   26062.59859537 -.00003210  00000+0 -26124-3 0  9991
2 55743  69.9983 259.9790 0003145 269.0162  91.0637 14.98339641165129
STARLINK-5601           
1 55744U 23028D   26062.66668981 -.00032637  00000+0 -27385-2 0  9995
2 55744  69.9995 259.7816 0002744 268.9277 119.9138 14.98354106  5772
STARLINK-5579           
1 55746U 23028F   26062.63196119  .00000825  00000+0  76908-4 0  9992
2 55746  69.9980 259.6931 0002227 271.5715  88.5189 14.98333927165130
STARLINK-5539           
1 55747U 23028G   26062.64865860  .00000368  00000+0  38663-4 0  9998
2 55747  69.9982 259.7516 0002499 273.1840  86.9033 14.98334622165134
STARLINK-5580           
1 55748U 23028H   26062.64448320  .00000266  00000+0  30082-4 0  9991
2 55748  69.9984 259.7359 0002696 271.6348  88.4502 14.98331511165139
STARLINK-5573           
1 55750U 23028K   26062.64030768  .00000735  00000+0  69379-4 0  9999
2 55750  69.9978 259.7222 0002859 271.9436  88.1396 14.98332740165139
